STARLINK-35924          
1 66516U 25265A   26188.39363869  .00020907  00000+0  76652-3 0  9992
2 66516  42.9991 321.6575 0000665 282.1219  77.9558 15.27604920 35422
STARLINK-35937          
1 66517U 25265B   26188.70656824  .00011789  00000+0  43682-3 0  9999
2 66517  43.0024 320.5667 0001726 266.1911  93.8744 15.27612315 35467
STARLINK-35962          
1 66518U 25265C   26188.43602999  .00014528  00000+0  53619-3 0  9999
2 66518  43.0046 321.9767 0003114 300.1237  59.9306 15.27591612 35420
STARLINK-35931          
1 66519U 25265D   26188.41932103 -.00024589  00000+0 -88824-3 0  9997
2 66519  42.9953 321.8353 0002221 173.9656 186.1223 15.27531042 35427
STARLINK-35952          
1 66520U 25265E   26188.42832096  .00010017  00000+0  37297-3 0  9997
2 66520  43.0030 321.9173 0000961 267.6739  92.4003 15.27586904 35422
STARLINK-35915          
1 66521U 25265F   26188.41805484  .00025336  00000+0  92647-3 0  9998
2 66521  43.0032 321.8387 0001594 268.5700  91.4969 15.27600522 35425
STARLINK-35946          
1 66522U 25265G   26188.36807584  .00015252  00000+0  56227-3 0  9996
2 66522  43.0068 322.3247 0001770 265.9876  94.0774 15.27600105 35416
STARLINK-35969          
1 66523U 25265H   26188.40903984  .00020738  00000+0  76081-3 0  9998
2 66523  43.0003 321.7609 0001421 184.6860 175.3979 15.27589334 35425
STARLINK-35687          
1 66524U 25265J   26188.44246135  .00014014  00000+0  51753-3 0  9990
2 66524  43.0030 322.0272 0001793 268.3122  91.7525 15.27597967 35428
STARLINK-35975          
1 66525U 25265K   26188.41032640  .00018402  00000+0  67654-3 0  9994
2 66525  43.0009 321.7780 0001339 206.0812 153.9973 15.27581618 35420
STARLINK-35932          
1 66526U 25265L   26188.40775738  .00021625  00000+0  79266-3 0  9999
2 66526  43.0011 321.7561 0001476 278.6681  81.4003 15.27596217 35422
STARLINK-35935          
1 66527U 25265M   26188.42703695  .00011525  00000+0  42749-3 0  9999
2 66527  43.0047 321.9031 0001769 268.0091  92.0559 15.27594214 35428
STARLINK-35928          
1 66528U 25265N   26189.16668980  .00007770  00000+0  29157-3 0  9994
2 66528  43.0020 317.3814 0001859 276.5676 337.3504 15.27581287  5856
STARLINK-35933          
1 66529U 25265P   26188.43860264  .00013250  00000+0  48989-3 0  9997
2 66529  43.0015 321.9947 0001351 288.4131  71.6574 15.27597199 35424
STARLINK-35961          
1 66530U 25265Q   26188.42445971  .00010312  00000+0  38364-3 0  9994
2 66530  43.0003 321.8828 0001341 171.1973 188.8903 15.27588222 35425
STARLINK-35960          
1 66531U 25265R   26188.38848328  .00013047  00000+0  48299-3 0  9999
2 66531  43.0015 321.6161 0000467 231.9613 128.1197 15.27567847 35423
STARLINK-35914          
1 66532U 25265S   26188.36036246  .00019600  00000+0  71931-3 0  9996
2 66532  43.0031 322.2637 0003226 286.7842  73.2655 15.27603569 35415
STARLINK-35707          
1 66533U 25265T   26188.41418574  .00015775  00000+0  58117-3 0  9991
2 66533  43.0037 321.8061 0002060 270.8912  89.1704 15.27600271 35424
STARLINK-35976          
1 66534U 25265U   26188.70270844  .00006845  00000+0  25793-3 0  9992
2 66534  43.0015 320.5300 0000963 236.4331 123.6428 15.27590153 35464
STARLINK-35514          
1 66535U 25265V   26188.43731790  .00010781  00000+0  40058-3 0  9990
2 66535  43.0036 321.9801 0001889 274.0738  85.9897 15.27592277 35421
STARLINK-35640          
1 66536U 25265W   26188.35778785  .00011509  00000+0  42702-3 0  9994
2 66536  43.0018 322.2386 0000833 206.9613 153.1196 15.27585662 35417
STARLINK-35582          
1 66537U 25265X   26188.35008738  .00015202  00000+0  56078-3 0  9994
2 66537  42.9996 322.1772 0000992 192.7154 167.3673 15.27581784 35415
STARLINK-35577          
1 66538U 25265Y   26189.00002315 -.00029917  00000+0 -10806-2 0  9991
2 66538  43.0023 318.4584 0000931 293.8951  65.8643 15.27623774  5927
STARLINK-35697          
1 66539U 25265Z   26188.40517990  .00011691  00000+0  43339-3 0  9991
2 66539  43.0019 321.7305 0001897 275.8579  84.2056 15.27601629 35425
STARLINK-35818          
1 66540U 25265AA  26188.70785406  .00013884  00000+0  51271-3 0  9995
2 66540  43.0000 320.5666 0001763 265.8208  94.2442 15.27605869 35468
STARLINK-35796          
1 66541U 25265AB  26188.42189463  .00013114  00000+0  48493-3 0  9994
2 66541  43.0037 321.8633 0001908 264.9706  95.0928 15.27598950 35427
STARLINK-35833          
1 66542U 25265AC  26188.71042199  .00007217  00000+0  27148-3 0  9992
2 66542  42.9999 320.5912 0001888 282.1257  77.9383 15.27585102 35462
STARLINK-35315          
1 66543U 25265AD  26188.36550485  .00013773  00000+0  50885-3 0  9994
2 66543  43.0043 322.2986 0001242 282.8971  77.1742 15.27595295 35419
STARLINK-35728          
1 66544U 25265AE  26188.39746638  .00017983  00000+0  66068-3 0  9992
2 66544  42.9970 321.6683 0000877 244.0993 115.9768 15.27615786 35429
SHIJIAN-30A (SJ-30A)    
1 66545U 25266A   26188.74678324  .00003966  00000+0  22391-3 0  9996
2 66545  51.7980  83.0903 0006302 318.5529  41.4968 15.15320056 34978
