OBJECT_NAME,OBJECT_ID,EPOCH,MEAN_MOTION,ECCENTRICITY,INCLINATION,RA_OF_ASC_NODE,ARG_OF_PERICENTER,MEAN_ANOMALY,EPHEMERIS_TYPE,CLASSIFICATION_TYPE,NORAD_CAT_ID,ELEMENT_SET_NO,REV_AT_EPOCH,BSTAR,MEAN_MOTION_DOT,MEAN_MOTION_DDOT
STARLINK-35924,2025-265A,2026-07-07T09:26:50.382816,15.27604920,.00006655,42.9991,321.6575,282.1219,77.9558,0,U,66516,999,3542,.76652206E-3,.20907E-3,0
STARLINK-35937,2025-265B,2026-07-07T16:57:27.495936,15.27612315,.0001726,43.0024,320.5667,266.1911,93.8744,0,U,66517,999,3546,.43682E-3,.11789E-3,0
STARLINK-35962,2025-265C,2026-07-07T10:27:52.991136,15.27591612,.0003114,43.0046,321.9767,300.1237,59.9306,0,U,66518,999,3542,.53618664E-3,.14528E-3,0
STARLINK-35931,2025-265D,2026-07-07T10:03:49.336992,15.27531042,.00022217,42.9953,321.8353,173.9656,186.1223,0,U,66519,999,3542,-.88823573E-3,-.24589E-3,0
STARLINK-35952,2025-265E,2026-07-07T10:16:46.930944,15.27586904,.00009611,43.0030,321.9173,267.6739,92.4003,0,U,66520,999,3542,.37297442E-3,.10017E-3,0
STARLINK-35915,2025-265F,2026-07-07T10:01:59.938176,15.27600522,.00015949,43.0032,321.8387,268.5700,91.4969,0,U,66521,999,3542,.92646719E-3,.25336E-3,0
STARLINK-35946,2025-265G,2026-07-07T08:50:01.752576,15.27600105,.00017703,43.0068,322.3247,265.9876,94.0774,0,U,66522,999,3541,.56226627E-3,.15252E-3,0
STARLINK-35969,2025-265H,2026-07-07T09:49:01.042176,15.27589334,.00014213,43.0003,321.7609,184.6860,175.3979,0,U,66523,999,3542,.76080637E-3,.20738E-3,0
STARLINK-35687,2025-265J,2026-07-07T10:37:08.660640,15.27597967,.00017937,43.0030,322.0272,268.3122,91.7525,0,U,66524,999,3542,.51753089E-3,.14014E-3,0
STARLINK-35975,2025-265K,2026-07-07T09:50:52.200960,15.27581618,.00013394,43.0009,321.7780,206.0812,153.9973,0,U,66525,999,3542,.67653821E-3,.18402E-3,0
STARLINK-35932,2025-265L,2026-07-07T09:47:10.237632,15.27596217,.00014765,43.0011,321.7561,278.6681,81.4003,0,U,66526,999,3542,.79266073E-3,.21625E-3,0
STARLINK-35935,2025-265M,2026-07-07T10:14:55.992480,15.27594214,.00017698,43.0047,321.9031,268.0091,92.0559,0,U,66527,999,3542,.42748724E-3,.11525E-3,0
STARLINK-35928,2025-265N,2026-07-08T04:00:01.998720,15.27581287,.0001859,43.0020,317.3814,276.5676,337.3504,0,U,66528,999,585,.29157E-3,.777E-4,0
STARLINK-35933,2025-265P,2026-07-07T10:31:35.268096,15.27597199,.00013513,43.0015,321.9947,288.4131,71.6574,0,U,66529,999,3542,.4898876E-3,.1325E-3,0
STARLINK-35961,2025-265Q,2026-07-07T10:11:13.318944,15.27588222,.00013417,43.0003,321.8828,171.1973,188.8903,0,U,66530,999,3542,.38363525E-3,.10312E-3,0
STARLINK-35960,2025-265R,2026-07-07T09:19:24.955392,15.27567847,.00004675,43.0015,321.6161,231.9613,128.1197,0,U,66531,999,3542,.48298555E-3,.13047E-3,0
STARLINK-35914,2025-265S,2026-07-07T08:38:55.316544,15.27603569,.00032262,43.0031,322.2637,286.7842,73.2655,0,U,66532,999,3541,.71931129E-3,.196E-3,0
STARLINK-35707,2025-265T,2026-07-07T09:56:25.647936,15.27600271,.00020606,43.0037,321.8061,270.8912,89.1704,0,U,66533,999,3542,.58116509E-3,.15775E-3,0
STARLINK-35976,2025-265U,2026-07-07T16:51:54.009216,15.27590153,.0000963,43.0015,320.5300,236.4331,123.6428,0,U,66534,999,3546,.25793E-3,.6845E-4,0
STARLINK-35514,2025-265V,2026-07-07T10:29:44.266560,15.27592277,.00018894,43.0036,321.9801,274.0738,85.9897,0,U,66535,999,3542,.40058075E-3,.10781E-3,0
STARLINK-35640,2025-265W,2026-07-07T08:35:12.870240,15.27585662,.00008331,43.0018,322.2386,206.9613,153.1196,0,U,66536,999,3541,.42702077E-3,.11509E-3,0
STARLINK-35582,2025-265X,2026-07-07T08:24:07.549632,15.27581784,.00009928,42.9996,322.1772,192.7154,167.3673,0,U,66537,999,3541,.56078439E-3,.15202E-3,0
STARLINK-35577,2025-265Y,2026-07-08T00:00:02.000160,15.27623774,.0000931,43.0023,318.4584,293.8951,65.8643,0,U,66538,999,592,-.10806E-2,-.29917E-3,0
STARLINK-35697,2025-265Z,2026-07-07T09:43:27.543360,15.27601629,.0001897,43.0019,321.7305,275.8579,84.2056,0,U,66539,999,3542,.43339E-3,.11691E-3,0
STARLINK-35818,2025-265AA,2026-07-07T16:59:18.590784,15.27605869,.0001763,43.0000,320.5666,265.8208,94.2442,0,U,66540,999,3546,.51271E-3,.13884E-3,0
STARLINK-35796,2025-265AB,2026-07-07T10:07:31.696032,15.27598950,.00019082,43.0037,321.8633,264.9706,95.0928,0,U,66541,999,3542,.48492947E-3,.13114E-3,0
STARLINK-35833,2025-265AC,2026-07-07T17:03:00.459936,15.27585102,.0001888,42.9999,320.5912,282.1257,77.9383,0,U,66542,999,3546,.27148E-3,.7217E-4,0
STARLINK-35315,2025-265AD,2026-07-07T08:46:19.619040,15.27595295,.00012426,43.0043,322.2986,282.8971,77.1742,0,U,66543,999,3541,.50884861E-3,.13773E-3,0
STARLINK-35728,2025-265AE,2026-07-07T09:32:21.095232,15.27615786,.00008775,42.9970,321.6683,244.0993,115.9768,0,U,66544,999,3542,.66068161E-3,.17983E-3,0
SHIJIAN-30A (SJ-30A),2025-266A,2026-07-07T17:55:22.071936,15.15320056,.0006302,51.7980,83.0903,318.5529,41.4968,0,U,66545,999,3497,.22391E-3,.3966E-4,0
